#cP2015  5 22  0  0  0.00000000      96 ORBIT IGb08 HLM  IGS
## 1845 432000.00000000   900.00000000 57164 0.0000000000000
+   32   G01G02G03G04G05G06G07G08G09G10G11G12G13G14G15G16G17
+        G18G19G20G21G22G23G24G25G26G27G28G29G30G31G32  0  0
+          0  0  0  0  0  0  0  0  0  0  0  0  0  0  0  0  0
+          0  0  0  0  0  0  0  0  0  0  0  0  0  0  0  0  0
+          0  0  0  0  0  0  0  0  0  0  0  0  0  0  0  0  0
++         2  3  2  2  3  3  2  0  2  2  2  3  2  2  3  2  2
++         2  2  3  2  2  2  3  2  3  2  2  3  2  2  2  0  0
++         0  0  0  0  0  0  0  0  0  0  0  0  0  0  0  0  0
++         0  0  0  0  0  0  0  0  0  0  0  0  0  0  0  0  0
++         0  0  0  0  0  0  0  0  0  0  0  0  0  0  0  0  0
%c G  cc GPS ccc cccc cccc cccc cccc ccccc ccccc ccccc ccccc
%c cc cc ccc ccc cccc cccc cccc cccc ccccc ccccc ccccc ccccc
%f  1.2500000  1.025000000  0.00000000000  0.000000000000000
%f  0.0000000  0.000000000  0.00000000000  0.000000000000000
%i    0    0    0    0      0      0      0      0         0
%i    0    0    0    0      0      0      0      0         0
/* RAPID ORBIT COMBINATION FROM WEIGHTED AVERAGE OF:        
/* cod emr esa gfz jpl ngs sio usn whu                      
/* REFERENCED TO IGS TIME (IGST) AND TO WEIGHTED MEAN POLE: 
/* PCV:IGS08_1844 OL/AL:FES2004  NONE     Y  ORB:CMB CLK:CMB
*  2015  5 22  2 15  0.00000000
PG01  22673.636120  12970.069975   5292.680039     -5.291230  5  7  3 108       
PG02 -10905.264802 -20339.649397  13896.052920    567.288056  5  6  6 105       
PG03  13953.839650   7869.478604  21193.700771    333.019393  7  6  1 101       
PG04  19267.646533  18092.489601  -4141.317778    -15.695970  7  7    119       
PG05  -4185.029760 -24194.199549  -9933.588106   -238.734636  9  8  6  65       
PG06   4285.043014 -15369.371780  21237.325702    166.277634  6  6  5  65       
PG07  20603.906130   1888.965708 -16762.258726    463.687781  7  9  7 108       
PG08  -7885.319471  24417.688875   6166.262890 999999.999999
PG09  25195.632045  -6157.734512   5758.916769   -159.718842  9  8  7 120       
PG10   9306.795551 -23090.323383   8236.928893   -175.843588  6  7  6  99       
PG11  23675.702113  11491.375693  -4591.850993   -579.808456  8  8  4 116       
PG12 -11711.178766 -11723.487751  20712.558875    294.922146  8  6  6 120       
PG13  -4055.742629 -14421.093836 -22076.491668   -116.520018  9  8     92       
PG14 -18174.445633  14943.733544  12405.904467     61.764958  6  6  8 107       
PG15 -16559.761112  -8026.736674 -19345.995863   -250.572453  6  5  7 106       
PG16   1865.761689  24345.076719 -10046.880635   -126.806332  4  7  6 108       
PG17  18180.893640 -15272.161379  11982.158383   -172.306008  7  7  3 106       
PG18 -14654.850859  12829.329043 -17428.013034    403.285406  5  6  4 118       
PG19  13452.507692  10638.292798 -20593.978969   -511.126783  5  7     87       
PG20  -8090.346431 -22082.127773 -12475.943528    322.207390  7  8  7  73       
PG21 -19801.665842   1092.400969 -17130.087671   -448.238832  6  8  3 136       
PG22  -9645.571352  22744.251552  -9279.647304    352.829066  8  7  5 126       
PG23  22447.678744   2079.208800  14529.584175   -109.877251  7  6  4 103       
PG24 -22268.559664 -14416.889596   2404.746796    -48.671157  8  8 10 101       
PG25 -15042.046118   2931.528277  21573.999802    -31.606388  6  5  6 131       
PG26  -3867.642643  26265.257045    649.610719     30.370765  5  6  8 123       
PG27   1781.028767  15371.831883 -21590.524997     73.619619  4  6  3 116       
PG28  12328.461701 -19548.090773 -12390.422286    441.453430  4  6  4 127       
PG29 -25205.049990   3395.212857   7591.886247    611.929057 10  9  8 130       
PG30  13549.539646  -8130.979712 -21368.810700    -56.179233  8  8  5 108       
PG31  -1372.883729  16864.576957  20512.537500    315.214554  8  8  5 115       
PG32   6093.209906  21580.310716  14623.046610   -145.231283  6  5  6  72       
*  2015  5 22  2 30  0.00000000
PG01  22898.675928  13423.452729   2491.713076     -5.290817  5  7    112       
PG02  -9439.469043 -19585.248583  15917.529880    567.290331  6  5  6 113       
PG03  13643.576128  10226.748877  20369.496989    333.027818  7  6    102       
PG04  18623.251131  17987.379037  -6846.061068    -15.697347  6  7    121       
PG05  -3811.435822 -25153.106232  -7335.383982   -238.730536  9  9  6 110       
PG06   6306.459237 -13975.117757  21691.087814    166.285859  6  6  5  72       
PG07  21961.127296   3089.517492 -14787.524411    463.689975  6  9  6 115       
PG08  -7979.438305  23511.082943   8902.989178 999999.999999
PG09  24558.943102  -5593.458513   8450.514397   -159.724210  9  8  7 107       
PG10   9498.783662 -21910.131767  10776.956004   -175.845976  6  7  7 108       
PG11  22965.662497  11714.332745  -7187.980436   -579.810588  7  7  3 112       
PG12 -11313.829658 -13998.513136  19510.601410    294.924984  8  6  6 120       
PG13  -1694.807235 -15178.791586 -21884.595547   -116.522797  9  8     94       
PG14 -19420.275892  15174.279602   9931.645891     61.762319  7  6  7  91       
PG15 -14599.804376  -9149.471014 -20374.147468   -250.574377  7  4  6 101       
PG16   1524.157072  25294.689591  -7347.518150   -126.802935  5  7  6 109       
PG17  19362.189862 -15528.656424   9458.289579   -172.307649  7  7  4 105       
PG18 -14684.843852  10633.062074 -18815.375831    403.288075  6  6  5 122       
PG19  11241.857473  11446.159542 -21435.038170   -511.127984  4  6     59       
PG20  -7757.076590 -23350.525163 -10113.713869    322.210750  8  8  7 104       
PG21 -21305.888947   -204.187839 -15371.556428   -448.242068  7  9  3 138       
PG22  -9877.342615  21477.973322 -11695.886294    352.832655  7  7  5 127       
PG23  20931.449005   2946.608666  16489.170123   -109.879598  7  6  4 103       
PG24 -22213.667627 -14701.428627   -424.787178    -48.672507  9  8 10  83       
PG25 -14826.699752    433.685193  21928.103493    -31.609862  7  5  6 134       
PG26  -4100.078437  26003.676658   3491.763092     30.371745  5  6  9 118       
PG27   -453.264443  16327.978189 -20936.896237     73.622041  4  5  1 120       
PG28  12208.908660 -17902.378476 -14679.994930    441.455879  3  6  3 130       
PG29 -24331.482620   2837.213881  10226.787115    611.931213 10  9  8 125       
PG30  15354.339421  -6541.500583 -20688.382790    -56.174174  8  8  5 110       
PG31  -3303.823180  15480.037638  21400.469100    315.213527  8  8  6 111       
PG32   5624.219515  23055.469961  12444.885628   -145.222864  5  4  6  84       
*  2015  5 22  2 45  0.00000000
PG01  22879.486556  13692.313027   -351.670742     -5.290398  6  7    117       
PG02  -7757.229809 -18798.784349  17676.631825    567.292309  6  5  7 105       
PG03  13460.362249  12484.333255  19194.944833    333.036240  7  6  1  94       
PG04  17723.971254  17758.749108  -9435.884526    -15.698400  6  7    131       
PG05  -3495.321012 -25827.996769  -4609.741853   -238.726334  9  9  6  74       
PG06   8423.652468 -12672.300186  21771.726309    166.294110  6  6  5  63       
PG07  23182.552817   4081.236749 -12560.997447    463.692387  6  9  7 110       
PG08  -8106.242836  22306.488140  11483.257355 999999.999999
PG09  23690.486873  -4858.016838  10996.788830   -159.729577  9  8  7 107       
PG10   9734.054201 -20458.981298  13123.748281   -175.846229  6  7  7 102       
PG11  21994.520165  11900.905976  -9663.232459   -579.812851  7  7  4 118       
PG12 -11059.828331 -16134.993412  17972.322055    294.927752  8  6  6 113       
PG13    580.655930 -16048.724263 -21321.475180   -116.525877  9  8  2  56       
PG14 -20388.421551  15354.477224   7286.698224     61.760048  8  7  6 106       
PG15 -12611.590910 -10415.570737 -21056.508616   -250.576331  7  3  5  92       
PG16   1267.665190  25947.781907  -4519.172073   -126.799557  6  8  7 113       
PG17  20263.629784 -15721.291694   6771.679790   -172.309285  7  8  5 116       
PG18 -14809.968453   8300.344501 -19862.720038    403.290799  7  5  5 112       
PG19   9006.502397  12402.947460 -21916.010609   -511.128890  4  6     96       
PG20  -7473.833822 -24359.441191  -7578.267510    322.214104  9  9  7 105       
PG21 -22680.374229  -1308.883162 -13339.697656   -448.244861  7  9  4 132       
PG22 -10160.792495  19960.051976 -13906.574264    352.836236  7  7  6 124       
PG23  19279.831017   3985.502634  18172.780821   -109.881636  6  4  4 102       
PG24 -21901.660194 -14822.283757  -3247.078054    -48.673695  9  8 10  83       
PG25 -14747.194461  -2089.228289  21901.208952    -31.613326  6  6  6 129       
PG26  -4333.944060  25436.259655   6273.784271     30.372711  5  7  9 115       
PG27  -2551.169789  17357.626491 -19922.794406     73.624386  5  5  1 124       
PG28  12155.251114 -16000.032675 -16705.571751    441.458299  3  7  2 134       
PG29 -23226.928625   2112.437078  12685.389035    611.933127  9  9  8 124       
PG30  17160.174912  -5105.031785 -19652.807652    -56.169174  8  8  6 118       
PG31  -5370.221133  14159.847893  21922.569780    315.212589  8  8  6 105       
PG32   5263.617922  24297.482361  10058.134764   -145.214321  5  4  7  65       
EOF
